[{"OBJECT_NAME":"JY1SAT (JO-97)","OBJECT_ID":"2018-099AX","EPOCH":"2026-03-09T16:28:19.890048","MEAN_MOTION":15.30302629,"ECCENTRICITY":0.00047232,"INCLINATION":97.4249,"RA_OF_ASC_NODE":131.3625,"ARG_OF_PERICENTER":256.6795,"MEAN_ANOMALY":103.3919,"EPHEMERIS_TYPE":0,"CLASSIFICATION_TYPE":"U","NORAD_CAT_ID":43803,"ELEMENT_SET_NO":999,"REV_AT_EPOCH":39839,"BSTAR":0.00060804308,"MEAN_MOTION_DOT":0.00017774,"MEAN_MOTION_DDOT":0},{"OBJECT_NAME":"STARLINK-34239","OBJECT_ID":"2025-144E","EPOCH":"2026-03-09T14:58:48.731232","MEAN_MOTION":15.30186319,"ECCENTRICITY":0.0001334,"INCLINATION":53.1602,"RA_OF_ASC_NODE":181.2192,"ARG_OF_PERICENTER":77.2019,"MEAN_ANOMALY":282.9131,"EPHEMERIS_TYPE":0,"CLASSIFICATION_TYPE":"U","NORAD_CAT_ID":64728,"ELEMENT_SET_NO":999,"REV_AT_EPOCH":3970,"BSTAR":0.0011737,"MEAN_MOTION_DOT":0.0003455,"MEAN_MOTION_DDOT":0}]
